NOAA 15                 
1 25338U 98030A   24052.45473559  .00000284  00000+0  13590-3 0  9990
2 25338  98.5827  81.9511 0009420 309.4404  50.5942 14.26498573340793
DMSP 5D-3 F16 (USA 172) 
1 28054U 03048A   24052.47597722  .00000272  00000+0  16743-3 0  9994
2 28054  99.0222  57.8473 0007760  30.5714  86.3273 14.13954749 49783
NOAA 18                 
1 28654U 05018A   24052.45563959  .00000281  00000+0  17412-3 0  9996
2 28654  98.8837 130.3640 0014636  37.9742 322.2459 14.13128463966774
METEOSAT-9 (MSG-2)      
1 28912U 05049B   24051.69283833  .00000117  00000+0  00000+0 0  9991
2 28912   7.4167  61.8366 0000298  29.7711 353.6043  1.00274709 66551
EWS-G1 (GOES 13)        
1 29155U 06018A   24052.11182275 -.00000206  00000+0  00000+0 0  9994
2 29155   2.3195  86.6864 0088378 250.2180 206.5003  0.99158741 65005
DMSP 5D-3 F17 (USA 191) 
1 29522U 06050A   24052.46754519  .00000295  00000+0  17682-3 0  9997
2 29522  98.7493  65.4317 0009143 317.0722  42.9737 14.14400373892690
FENGYUN 3A              
1 32958U 08026A   24052.48154325  .00000258  00000+0  14411-3 0  9996
2 32958  98.5904   3.0667 0009673  53.7904 306.4165 14.19019648815416
FENGYUN 2E              
1 33463U 08066A   24052.48871785 -.00000211  00000+0  00000+0 0  9993
2 33463   7.2846  61.1579 0001630 289.4189  62.8695  1.00267748 55605
NOAA 19                 
1 33591U 09005A   24052.46165119  .00000271  00000+0  17015-3 0  9997
2 33591  99.0647 106.9493 0012945 260.2193  99.7517 14.12931959775140
GOES 14                 
1 35491U 09033A   24051.65076472 -.00000076  00000+0  00000+0 0  9998
2 35491   0.0679 148.3907 0001524 230.1906 257.3295  1.00273600 53618
DMSP 5D-3 F18 (USA 210) 
1 35951U 09057A   24052.51429680  .00000440  00000+0  25420-3 0  9995
2 35951  98.8014  29.5179 0011831 134.5969 225.6171 14.14004397739870
EWS-G2 (GOES 15)        
1 36411U 10008A   24052.12565936  .00000029  00000+0  00000+0 0  9993
2 36411   0.0125 145.8576 0004297 136.1830 335.0844  1.00269261 51140
COMS 1                  
1 36744U 10032A   24051.92411493 -.00000355  00000+0  00000+0 0  9997
2 36744   2.6293  86.2387 0001066 254.9428 269.9661  1.00270672 42593
FENGYUN 3B              
1 37214U 10059A   24052.57275885  .00000171  00000+0  11293-3 0  9999
2 37214  99.0684  78.9690 0023051  63.5288  47.4766 14.14447330687766
SUOMI NPP               
1 37849U 11061A   24052.53194082  .00000156  00000+0  94609-4 0  9998
2 37849  98.7305 352.2992 0000657  87.9000 272.2252 14.19560167638312
FENGYUN 2F              
1 38049U 12002A   24052.49376516 -.00000367  00000+0  00000+0 0  9998
2 38049   5.3037  74.2838 0002956  31.0305 335.4892  1.00274986 44403
METEOSAT-10 (MSG-3)     
1 38552U 12035B   24051.82702726 -.00000016  00000+0  00000+0 0  9996
2 38552   2.7048  59.9371 0001808 277.0172 111.0925  1.00269096 42360
METOP-B                 
1 38771U 12049A   24052.47068877  .00000203  00000+0  11252-3 0  9990
2 38771  98.6444 112.2301 0001259  68.0373 292.0938 14.21474504592963
FENGYUN 3C              
1 39260U 13052A   24052.51994216  .00000182  00000+0  11260-3 0  9994
2 39260  98.4287  58.3176 0010130 307.5058  52.5196 14.16151161538813
METEOR-M 2              
1 40069U 14037A   24052.49178350  .00000245  00000+0  13231-3 0  9997
2 40069  98.4330  51.9733 0005416 349.8948  10.2120 14.20896267499055
HIMAWARI-8              
1 40267U 14060A   24051.92655155 -.00000286  00000+0  00000+0 0  9995
2 40267   0.0449 237.0054 0001472 101.5427 285.9692  1.00271011 34262
FENGYUN 2G              
1 40367U 14090A   24052.49132853 -.00000313  00000+0  00000+0 0  9998
2 40367   3.4909  82.8817 0001281  50.6909 293.9949  1.00272972 33542
METEOSAT-11 (MSG-4)     
1 40732U 15034A   24052.11530367  .00000054  00000+0  00000+0 0  9995
2 40732   1.1070  65.3977 0002251 210.3195 285.6530  1.00275903 31511
ELEKTRO-L 2             
1 41105U 15074A   24052.39699598 -.00000126  00000+0  00000+0 0  9997
2 41105   4.5432  80.8711 0003074 207.7266 350.6092  1.00273115 30020
HIMAWARI-9              
1 41836U 16064A   24052.49950865 -.00000284  00000+0  00000+0 0  9991
2 41836   0.0255 123.3478 0001034 201.9034 146.2657  1.00269255 26819
GOES 16                 
1 41866U 16071A   24052.09850829 -.00000258  00000+0  00000+0 0  9998
2 41866   0.0895 271.7570 0001072  78.5427 120.4451  1.00271907 26609
FENGYUN 4A              
1 41882U 16077A   24051.91941569 -.00000340  00000+0  00000+0 0  9996
2 41882   0.1600  77.1896 0004539 334.0624 174.7468  1.00270679 26437
CYGFM05                 
1 41884U 16078A   24052.07633873  .00008955  00000+0  35715-3 0  9997
2 41884  34.9557 320.9611 0013414 216.2083 143.7724 15.24352230398282
CYGFM04                 
1 41885U 16078B   24051.80458561  .00009390  00000+0  36555-3 0  9994
2 41885  34.9463 307.8143 0011878 239.2487 120.7057 15.25167011398228
CYGFM02                 
1 41886U 16078C   24051.85023315  .00008806  00000+0  34234-3 0  9998
2 41886  34.9575 310.0064 0012935 229.9059 130.0522 15.25213868398310
CYGFM01                 
1 41887U 16078D   24051.84037477  .00008674  00000+0  34885-3 0  9997
2 41887  34.9512 325.9984 0013680 213.6444 146.3402 15.24072814398088
CYGFM08                 
1 41888U 16078E   24051.79720327  .00008817  00000+0  34727-3 0  9999
2 41888  34.9489 315.5017 0013235 228.0788 131.8798 15.24774181398242
CYGFM07                 
1 41890U 16078G   24052.39115348  .00009428  00000+0  36589-3 0  9997
2 41890  34.9488 303.6024 0011435 242.4509 117.5044 15.25273855398474
CYGFM03                 
1 41891U 16078H   24052.02766928  .00009577  00000+0  37233-3 0  9996
2 41891  34.9539 306.9723 0011104 231.5737 128.3981 15.25215477398408
FENGYUN 3D              
1 43010U 17072A   24052.49493546  .00000185  00000+0  10988-3 0  9994
2 43010  98.8963   6.5620 0001100 356.1061   4.0105 14.19287384324866
NOAA 20                 
1 43013U 17073A   24052.42609706  .00000148  00000+0  90890-4 0  9998
2 43013  98.7383 352.1810 0001533 102.2609 257.8739 14.19549122324337
GOES 17                 
1 43226U 18022A   24052.51757823 -.00000100  00000+0  00000+0 0  9991
2 43226   0.0196 301.6080 0001732 358.8105 292.1280  1.00272332 21946
FENGYUN 2H              
1 43491U 18050A   24052.48723847 -.00000137  00000+0  00000+0 0  9991
2 43491   0.8402  88.1774 0000788 324.8588 352.4873  1.00269202 21022
METOP-C                 
1 43689U 18087A   24052.43708601  .00000197  00000+0  10992-3 0  9996
2 43689  98.6963 113.2480 0003281  68.9643 291.1885 14.21486479274533
GEO-KOMPSAT-2A          
1 43823U 18100A   24052.20535687 -.00000353  00000+0  00000+0 0  9999
2 43823   0.0147  65.4781 0001068 330.3021 316.9984  1.00271437 19175
METEOR-M2 2             
1 44387U 19038A   24052.50134325  .00000096  00000+0  61781-4 0  9994
2 44387  98.8126  21.3559 0000705 358.0800   2.0375 14.23854010240789
ARKTIKA-M 1             
1 47719U 21016A   24047.12528220  .00000135  00000+0  00000+0 0  9994
2 47719  63.1392 165.6053 6907079 268.9907  18.1022  2.00601811 21690
FENGYUN 3E              
1 49008U 21062A   24052.50006234  .00000063  00000+0  50515-4 0  9993
2 49008  98.7317  55.3505 0002039  40.4459 319.6868 14.19730702136433
GOES 18                 
1 51850U 22021A   24052.49827296  .00000087  00000+0  00000+0 0  9999
2 51850   0.0012 350.4922 0000602 299.9099 262.8457  1.00271999  7317
NOAA 21 (JPSS-2)        
1 54234U 22150A   24052.44242748  .00000187  00000+0  10954-3 0  9993
2 54234  98.7418 351.7689 0001577  95.6174 264.5182 14.19519226 66413
METEOSAT-12 (MTG-I1)    
1 54743U 22170C   24051.89850421 -.00000017  00000+0  00000+0 0  9991
2 54743   0.3888   6.6833 0000369 289.1725 177.4899  1.00273142  4481
TIANMU-1 03             
1 55973U 23039A   24052.46880537  .00010176  00000+0  42789-3 0  9997
2 55973  97.4516 203.6178 0013125 154.9350 205.2527 15.23522628 51071
TIANMU-1 04             
1 55974U 23039B   24052.45077849  .00010120  00000+0  42627-3 0  9991
2 55974  97.4435 203.2865 0010149 153.2251 206.9511 15.23497096 51066
TIANMU-1 05             
1 55975U 23039C   24052.43635049  .00011092  00000+0  46725-3 0  9994
2 55975  97.4485 203.5194 0006351 144.5808 215.5851 15.23498902 51050
TIANMU-1 06             
1 55976U 23039D   24052.48632614  .00010828  00000+0  45629-3 0  9993
2 55976  97.4500 203.6634 0005826 145.2577 214.9041 15.23496605 51069
METEOR-M2 3             
1 57166U 23091A   24052.46702041  .00000038  00000+0  35943-4 0  9995
2 57166  98.7304 108.1004 0005072 105.9953 254.1785 14.23872522 34014
TIANMU-1 07             
1 57399U 23101A   24052.42080618  .00005601  00000+0  29892-3 0  9996
2 57399  97.3805 112.9055 0003656 220.4525 139.6436 15.15524060 32736
TIANMU-1 08             
1 57400U 23101B   24052.45554132  .00006091  00000+0  32486-3 0  9996
2 57400  97.3792 112.8304 0006130 229.7075 130.3622 15.15506758 32731
TIANMU-1 09             
1 57401U 23101C   24052.43715408  .00006317  00000+0  33688-3 0  9996
2 57401  97.3749 112.7266 0006439 225.3047 134.7662 15.15492643 32732
TIANMU-1 10             
1 57402U 23101D   24052.46858217  .00005708  00000+0  30459-3 0  9992
2 57402  97.3828 112.9117 0008691 228.8583 131.1901 15.15495753 32735
FENGYUN 3F              
1 57490U 23111A   24052.45877237  .00000130  00000+0  82216-4 0  9995
2 57490  98.7831 122.6106 0001837  83.4279 276.7106 14.19769954 28704
TIANMU-1 11             
1 58645U 23205A   24052.51285272  .00005261  00000+0  29075-3 0  9994
2 58645  97.4166  80.6194 0013157  78.4961 281.7747 15.14244097  8857
TIANMU-1 12             
1 58646U 23205B   24052.45461682  .00005143  00000+0  28617-3 0  9999
2 58646  97.4152  80.5337 0011971  76.3400 283.9164 15.14023730  8832
TIANMU-1 13             
1 58647U 23205C   24052.47152469  .00005472  00000+0  30841-3 0  9999
2 58647  97.4184  80.5346 0012106  70.0868 290.1667 15.13537576  8833
TIANMU-1 14             
1 58648U 23205D   24052.45651228  .00004944  00000+0  27584-3 0  9998
2 58648  97.4108  80.4963 0012624  73.6131 286.6488 15.13937567  8836
TIANMU-1 19             
1 58660U 23208A   24052.52579613  .00007339  00000+0  41168-3 0  9995
2 58660  97.3998 168.0638 0012334  55.6996 304.5401 15.13585861  8511
TIANMU-1 20             
1 58661U 23208B   24052.50696437  .00006465  00000+0  36042-3 0  9992
2 58661  97.3925 168.0311 0011812  63.8477 296.3969 15.13857370  8519
TIANMU-1 21             
1 58662U 23208C   24052.42939737  .00006860  00000+0  37445-3 0  9994
2 58662  97.3962 168.0148 0011398  64.1783 296.0624 15.14598219  8501
TIANMU-1 22             
1 58663U 23208D   24052.41533684  .00010522  00000+0  56412-3 0  9990
2 58663  97.3976 168.0446 0011891  77.1000 283.1560 15.15098091  8502
TIANMU-1 15             
1 58700U 24004A   24052.45173591  .00006532  00000+0  36744-3 0  9990
2 58700  97.4588 235.8503 0011773  94.1604 266.0973 15.13539586  7109
TIANMU-1 16             
1 58701U 24004B   24052.50268694  .00006185  00000+0  34343-3 0  9993
2 58701  97.4515 235.8886 0012557  99.4763 260.7889 15.14018260  7119
TIANMU-1 17             
1 58702U 24004C   24052.49031093  .00005078  00000+0  27606-3 0  9997
2 58702  97.4559 235.9328 0012190 102.0391 258.2208 15.14863470  7108
TIANMU-1 18             
1 58703U 24004D   24052.47818787  .00003797  00000+0  20507-3 0  9998
2 58703  97.4574 235.9581 0012857 110.1897 250.0719 15.15252515  7108
